CCSDS_OMM_VERS = 2.0
CREATION_DATE  = 
ORIGINATOR     = 

OBJECT_NAME    = ISS (ZARYA)
OBJECT_ID      = 1998-067A
CENTER_NAME    = EARTH
REF_FRAME      = TEME
TIME_SYSTEM    = UTC
MEAN_ELEMENT_THEORY = SGP/SGP4

EPOCH          = 2025-10-31T03:59:25.206144
MEAN_MOTION    = 15.49645314
ECCENTRICITY   = .00049108
INCLINATION    = 51.6343
RA_OF_ASC_NODE = 353.2496
ARG_OF_PERICENTER = 359.9780
MEAN_ANOMALY   = 0.1208

EPHEMERIS_TYPE = 0
CLASSIFICATION_TYPE = U
NORAD_CAT_ID   = 25544
ELEMENT_SET_NO = 999
REV_AT_EPOCH   = 53625
BSTAR          = .31236461E-3
MEAN_MOTION_DOT = .17194E-3
MEAN_MOTION_DDOT = 0

CCSDS_OMM_VERS = 2.0
CREATION_DATE  = 
ORIGINATOR     = 

OBJECT_NAME    = CSS (TIANHE)
OBJECT_ID      = 2021-035A
CENTER_NAME    = EARTH
REF_FRAME      = TEME
TIME_SYSTEM    = UTC
MEAN_ELEMENT_THEORY = SGP/SGP4

EPOCH          = 2025-10-30T23:59:08.789856
MEAN_MOTION    = 15.60051747
ECCENTRICITY   = .0006963
INCLINATION    = 41.4665
RA_OF_ASC_NODE = 276.3037
ARG_OF_PERICENTER = 296.2483
MEAN_ANOMALY   = 63.7640

EPHEMERIS_TYPE = 0
CLASSIFICATION_TYPE = U
NORAD_CAT_ID   = 48274
ELEMENT_SET_NO = 999
REV_AT_EPOCH   = 25735
BSTAR          = .48594077E-3
MEAN_MOTION_DOT = .40407E-3
MEAN_MOTION_DDOT = 0

CCSDS_OMM_VERS = 2.0
CREATION_DATE  = 
ORIGINATOR     = 

OBJECT_NAME    = ISS (NAUKA)
OBJECT_ID      = 2021-066A
CENTER_NAME    = EARTH
REF_FRAME      = TEME
TIME_SYSTEM    = UTC
MEAN_ELEMENT_THEORY = SGP/SGP4

EPOCH          = 2025-10-31T03:59:25.206144
MEAN_MOTION    = 15.49645314
ECCENTRICITY   = .00049108
INCLINATION    = 51.6343
RA_OF_ASC_NODE = 353.2496
ARG_OF_PERICENTER = 359.9780
MEAN_ANOMALY   = 0.1208

EPHEMERIS_TYPE = 0
CLASSIFICATION_TYPE = U
NORAD_CAT_ID   = 49044
ELEMENT_SET_NO = 999
REV_AT_EPOCH   = 23044
BSTAR          = .31236461E-3
MEAN_MOTION_DOT = .17194E-3
MEAN_MOTION_DDOT = 0

CCSDS_OMM_VERS = 2.0
CREATION_DATE  = 
ORIGINATOR     = 

OBJECT_NAME    = FREGAT DEB
OBJECT_ID      = 2011-037PF
CENTER_NAME    = EARTH
REF_FRAME      = TEME
TIME_SYSTEM    = UTC
MEAN_ELEMENT_THEORY = SGP/SGP4

EPOCH          = 2025-10-31T05:13:26.134176
MEAN_MOTION    = 12.33768720
ECCENTRICITY   = .08904096
INCLINATION    = 51.6270
RA_OF_ASC_NODE = 325.1654
ARG_OF_PERICENTER = 132.1134
MEAN_ANOMALY   = 235.8971

EPHEMERIS_TYPE = 0
CLASSIFICATION_TYPE = U
NORAD_CAT_ID   = 49271
ELEMENT_SET_NO = 999
REV_AT_EPOCH   = 19668
BSTAR          = .65673108E-2
MEAN_MOTION_DOT = .3063E-4
MEAN_MOTION_DDOT = 0

CCSDS_OMM_VERS = 2.0
CREATION_DATE  = 
ORIGINATOR     = 

OBJECT_NAME    = CSS (WENTIAN)
OBJECT_ID      = 2022-085A
CENTER_NAME    = EARTH
REF_FRAME      = TEME
TIME_SYSTEM    = UTC
MEAN_ELEMENT_THEORY = SGP/SGP4

EPOCH          = 2025-10-30T23:59:08.789856
MEAN_MOTION    = 15.60051747
ECCENTRICITY   = .0006963
INCLINATION    = 41.4665
RA_OF_ASC_NODE = 276.3037
ARG_OF_PERICENTER = 296.2483
MEAN_ANOMALY   = 63.7640

EPHEMERIS_TYPE = 0
CLASSIFICATION_TYPE = U
NORAD_CAT_ID   = 53239
ELEMENT_SET_NO = 999
REV_AT_EPOCH   = 17384
BSTAR          = .48594077E-3
MEAN_MOTION_DOT = .40407E-3
MEAN_MOTION_DDOT = 0

CCSDS_OMM_VERS = 2.0
CREATION_DATE  = 
ORIGINATOR     = 

OBJECT_NAME    = CSS (MENGTIAN)
OBJECT_ID      = 2022-143A
CENTER_NAME    = EARTH
REF_FRAME      = TEME
TIME_SYSTEM    = UTC
MEAN_ELEMENT_THEORY = SGP/SGP4

EPOCH          = 2025-10-30T23:59:08.789856
MEAN_MOTION    = 15.60051747
ECCENTRICITY   = .0006963
INCLINATION    = 41.4665
RA_OF_ASC_NODE = 276.3037
ARG_OF_PERICENTER = 296.2483
MEAN_ANOMALY   = 63.7640

EPHEMERIS_TYPE = 0
CLASSIFICATION_TYPE = U
NORAD_CAT_ID   = 54216
ELEMENT_SET_NO = 999
REV_AT_EPOCH   = 15864
BSTAR          = .48594077E-3
MEAN_MOTION_DOT = .40407E-3
MEAN_MOTION_DDOT = 0

CCSDS_OMM_VERS = 2.0
CREATION_DATE  = 
ORIGINATOR     = 

OBJECT_NAME    = SOYUZ-MS 27
OBJECT_ID      = 2025-072A
CENTER_NAME    = EARTH
REF_FRAME      = TEME
TIME_SYSTEM    = UTC
MEAN_ELEMENT_THEORY = SGP/SGP4

EPOCH          = 2025-10-31T03:59:25.206144
MEAN_MOTION    = 15.49645314
ECCENTRICITY   = .00049108
INCLINATION    = 51.6343
RA_OF_ASC_NODE = 353.2496
ARG_OF_PERICENTER = 359.9780
MEAN_ANOMALY   = 0.1208

EPHEMERIS_TYPE = 0
CLASSIFICATION_TYPE = U
NORAD_CAT_ID   = 63520
ELEMENT_SET_NO = 999
REV_AT_EPOCH   = 2020
BSTAR          = .31236461E-3
MEAN_MOTION_DOT = .17194E-3
MEAN_MOTION_DDOT = 0

CCSDS_OMM_VERS = 2.0
CREATION_DATE  = 
ORIGINATOR     = 

OBJECT_NAME    = SHENZHOU-20 (SZ-20)
OBJECT_ID      = 2025-082A
CENTER_NAME    = EARTH
REF_FRAME      = TEME
TIME_SYSTEM    = UTC
MEAN_ELEMENT_THEORY = SGP/SGP4

EPOCH          = 2025-10-30T23:59:08.789856
MEAN_MOTION    = 15.60051747
ECCENTRICITY   = .0006963
INCLINATION    = 41.4665
RA_OF_ASC_NODE = 276.3037
ARG_OF_PERICENTER = 296.2483
MEAN_ANOMALY   = 63.7640

EPHEMERIS_TYPE = 0
CLASSIFICATION_TYPE = U
NORAD_CAT_ID   = 63632
ELEMENT_SET_NO = 999
REV_AT_EPOCH   = 25530
BSTAR          = .48594077E-3
MEAN_MOTION_DOT = .40407E-3
MEAN_MOTION_DDOT = 0

CCSDS_OMM_VERS = 2.0
CREATION_DATE  = 
ORIGINATOR     = 

OBJECT_NAME    = PROGRESS-MS 31
OBJECT_ID      = 2025-146A
CENTER_NAME    = EARTH
REF_FRAME      = TEME
TIME_SYSTEM    = UTC
MEAN_ELEMENT_THEORY = SGP/SGP4

EPOCH          = 2025-10-31T03:59:25.206144
MEAN_MOTION    = 15.49645314
ECCENTRICITY   = .00049108
INCLINATION    = 51.6343
RA_OF_ASC_NODE = 353.2496
ARG_OF_PERICENTER = 359.9780
MEAN_ANOMALY   = 0.1208

EPHEMERIS_TYPE = 0
CLASSIFICATION_TYPE = U
NORAD_CAT_ID   = 64751
ELEMENT_SET_NO = 999
REV_AT_EPOCH   = 675
BSTAR          = .31236461E-3
MEAN_MOTION_DOT = .17194E-3
MEAN_MOTION_DDOT = 0

CCSDS_OMM_VERS = 2.0
CREATION_DATE  = 
ORIGINATOR     = 

OBJECT_NAME    = TIANZHOU-9
OBJECT_ID      = 2025-149A
CENTER_NAME    = EARTH
REF_FRAME      = TEME
TIME_SYSTEM    = UTC
MEAN_ELEMENT_THEORY = SGP/SGP4

EPOCH          = 2025-10-30T23:59:08.789856
MEAN_MOTION    = 15.60051747
ECCENTRICITY   = .0006963
INCLINATION    = 41.4665
RA_OF_ASC_NODE = 276.3037
ARG_OF_PERICENTER = 296.2483
MEAN_ANOMALY   = 63.7640

EPHEMERIS_TYPE = 0
CLASSIFICATION_TYPE = U
NORAD_CAT_ID   = 64786
ELEMENT_SET_NO = 999
REV_AT_EPOCH   = 25530
BSTAR          = .48594077E-3
MEAN_MOTION_DOT = .40407E-3
MEAN_MOTION_DDOT = 0

CCSDS_OMM_VERS = 2.0
CREATION_DATE  = 
ORIGINATOR     = 

OBJECT_NAME    = CREW DRAGON 11
OBJECT_ID      = 2025-166A
CENTER_NAME    = EARTH
REF_FRAME      = TEME
TIME_SYSTEM    = UTC
MEAN_ELEMENT_THEORY = SGP/SGP4

EPOCH          = 2025-10-31T03:59:25.206144
MEAN_MOTION    = 15.49645314
ECCENTRICITY   = .00049108
INCLINATION    = 51.6343
RA_OF_ASC_NODE = 353.2496
ARG_OF_PERICENTER = 359.9780
MEAN_ANOMALY   = 0.1208

EPHEMERIS_TYPE = 0
CLASSIFICATION_TYPE = U
NORAD_CAT_ID   = 65077
ELEMENT_SET_NO = 999
REV_AT_EPOCH   = 214
BSTAR          = .31236461E-3
MEAN_MOTION_DOT = .17194E-3
MEAN_MOTION_DDOT = 0

CCSDS_OMM_VERS = 2.0
CREATION_DATE  = 
ORIGINATOR     = 

OBJECT_NAME    = DRAGON CRS-33
OBJECT_ID      = 2025-186A
CENTER_NAME    = EARTH
REF_FRAME      = TEME
TIME_SYSTEM    = UTC
MEAN_ELEMENT_THEORY = SGP/SGP4

EPOCH          = 2025-10-31T03:59:25.206144
MEAN_MOTION    = 15.49645314
ECCENTRICITY   = .00049108
INCLINATION    = 51.6343
RA_OF_ASC_NODE = 353.2496
ARG_OF_PERICENTER = 359.9780
MEAN_ANOMALY   = 0.1208

EPHEMERIS_TYPE = 0
CLASSIFICATION_TYPE = U
NORAD_CAT_ID   = 65304
ELEMENT_SET_NO = 999
REV_AT_EPOCH   = 11
BSTAR          = .31236461E-3
MEAN_MOTION_DOT = .17194E-3
MEAN_MOTION_DDOT = 0

