ISS (ZARYA)             
1 25544U 98067A   25304.16626396  .00017194  00000+0  31236-3 0  9992
2 25544  51.6343 353.2496 0004910 359.9780   0.1208 15.49645314536255
CSS (TIANHE)            
1 48274U 21035A   25303.99940729  .00040407  00000+0  48594-3 0  9995
2 48274  41.4665 276.3037 0006963 296.2483  63.7640 15.60051747257353
ISS (NAUKA)             
1 49044U 21066A   25304.16626396  .00017194  00000+0  31236-3 0  9998
2 49044  51.6343 353.2496 0004910 359.9780   0.1208 15.49645314230448
FREGAT DEB              
1 49271U 11037PF  25304.21766359  .00003063  00000+0  65673-2 0  9998
2 49271  51.6270 325.1654 0890409 132.1134 235.8971 12.33768720196681
CSS (WENTIAN)           
1 53239U 22085A   25303.99940729  .00040407  00000+0  48594-3 0  9998
2 53239  41.4665 276.3037 0006963 296.2483  63.7640 15.60051747173841
CSS (MENGTIAN)          
1 54216U 22143A   25303.99940729  .00040407  00000+0  48594-3 0  9999
2 54216  41.4665 276.3037 0006963 296.2483  63.7640 15.60051747158648
SOYUZ-MS 27             
1 63520U 25072A   25304.16626396  .00017194  00000+0  31236-3 0  9994
2 63520  51.6343 353.2496 0004910 359.9780   0.1208 15.49645314 20204
SHENZHOU-20 (SZ-20)     
1 63632U 25082A   25303.99940729  .00040407  00000+0  48594-3 0  9996
2 63632  41.4665 276.3037 0006963 296.2483  63.7640 15.60051747255301
PROGRESS-MS 31          
1 64751U 25146A   25304.16626396  .00017194  00000+0  31236-3 0  9993
2 64751  51.6343 353.2496 0004910 359.9780   0.1208 15.49645314  6755
TIANZHOU-9              
1 64786U 25149A   25303.99940729  .00040407  00000+0  48594-3 0  9991
2 64786  41.4665 276.3037 0006963 296.2483  63.7640 15.60051747255302
CREW DRAGON 11          
1 65077U 25166A   25304.16626396  .00017194  00000+0  31236-3 0  9997
2 65077  51.6343 353.2496 0004910 359.9780   0.1208 15.49645314  2146
DRAGON CRS-33           
1 65304U 25186A   25304.16626396  .00017194  00000+0  31236-3 0  9992
2 65304  51.6343 353.2496 0004910 359.9780   0.1208 15.49645314   114
